[{"OBJECT_NAME":"STARLINK-2033","OBJECT_ID":"2021-012AG","EPOCH":"2026-03-09T22:36:32.826240","MEAN_MOTION":15.29332756,"ECCENTRICITY":0.00015832,"INCLINATION":53.1575,"RA_OF_ASC_NODE":48.3997,"ARG_OF_PERICENTER":87.1336,"MEAN_ANOMALY":272.9845,"EPHEMERIS_TYPE":0,"CLASSIFICATION_TYPE":"U","NORAD_CAT_ID":47650,"ELEMENT_SET_NO":999,"REV_AT_EPOCH":28032,"BSTAR":8.202581e-5,"MEAN_MOTION_DOT":2.01e-5,"MEAN_MOTION_DDOT":0},{"OBJECT_NAME":"COSMOS 2588","OBJECT_ID":"2025-109A","EPOCH":"2026-03-09T19:28:59.107008","MEAN_MOTION":15.29122656,"ECCENTRICITY":0.0005019,"INCLINATION":72.9704,"RA_OF_ASC_NODE":73.5401,"ARG_OF_PERICENTER":308.678,"MEAN_ANOMALY":51.3966,"EPHEMERIS_TYPE":0,"CLASSIFICATION_TYPE":"U","NORAD_CAT_ID":64095,"ELEMENT_SET_NO":999,"REV_AT_EPOCH":4442,"BSTAR":0.00032611,"MEAN_MOTION_DOT":9.169e-5,"MEAN_MOTION_DDOT":0}]
